IRIDIUM 154             
1 43574U 18061F   26195.65063013  .00000073  00000+0  18880-4 0  9994
2 43574  86.3939  45.3194 0002309  90.5055 269.6406 14.34217501417347
IRIDIUM 163             
1 43575U 18061G   26195.63160271  .00000048  00000+0  10163-4 0  9995
2 43575  86.3936  45.2416 0002129  85.7174 274.4265 14.34217328417310
IRIDIUM 156             
1 43576U 18061H   26195.67600099  .00000050  00000+0  10887-4 0  9993
2 43576  86.3936  45.2303 0002091  92.5574 267.5861 14.34217556417312
IRIDIUM 164             
1 43577U 18061J   26195.65697467  .00000144  00000+0  44467-4 0  9992
2 43577  86.3938  45.2792 0002325  89.3937 270.7525 14.34218154417356
IRIDIUM 159             
1 43578U 18061K   26195.62525993  .00000052  00000+0  11407-4 0  9990
2 43578  86.3935  45.2288 0002140  85.2348 274.9092 14.34217422417318
IRIDIUM 180             
1 43922U 19002A   26195.90383059  .00000109  00000+0  31961-4 0  9995
2 43922  86.3991 342.0108 0002184  90.7939 269.3507 14.34218390392964
IRIDIUM 176             
1 43923U 19002B   26195.88992359  .00000387  00000+0  57473-4 0  9996
2 43923  86.6111 341.9561 0002333  89.9278 270.2207 14.72248840403321
IRIDIUM 168             
1 43924U 19002C   26195.89748739 -.00000052  00000+0 -25670-4 0  9994
2 43924  86.3989 342.0916 0002103  91.5494 268.5943 14.34216547392941
IRIDIUM 173             
1 43925U 19002D   26195.88480343 -.00000076  00000+0 -34184-4 0  9994
2 43925  86.3987 341.9850 0002025  91.6799 268.4629 14.34216472392922
IRIDIUM 169             
1 43926U 19002E   26195.93539859  .00000035  00000+0  49180-5 0  9994
2 43926  86.4221  13.5885 0001876 103.1639 256.9768 14.38613185394216
IRIDIUM 172             
1 43927U 19002F   26195.94822941  .00000015  00000+0 -18103-5 0  9993
2 43927  86.3988 341.9658 0002179  90.2194 269.9251 14.34217451392942
IRIDIUM 175             
1 43928U 19002G   26195.72439922  .00000177  00000+0  46156-4 0  9999
2 43928  86.4512 279.0109 0005288 116.2044 243.9701 14.43627085402959
IRIDIUM 171             
1 43929U 19002H   26195.85943256  .00000035  00000+0  54891-5 0  9993
2 43929  86.3998 342.3121 0002219  94.9130 265.2319 14.34217604392923
IRIDIUM 170             
1 43930U 19002J   26195.89609362  .00000390  00000+0  57899-4 0  9990
2 43930  86.6110 341.9558 0002263  86.4132 273.7344 14.72249436403330
IRIDIUM 167             
1 43931U 19002K   26195.92285821  .00000039  00000+0  70323-5 0  9993
2 43931  86.3991 341.9991 0002286  98.7123 261.4332 14.34217754392937
IRIDIUM 181             
1 56726U 23068S   26195.69954844  .00000174  00000+0  45734-4 0  9995
2 56726  86.4475  45.2853 0002406  83.7894 276.3581 14.43312097166403
IRIDIUM 177             
1 56727U 23068T   26195.83896989  .00000540  00000+0  67857-4 0  9994
2 56727  86.1988 315.6632 0002346  95.8884 264.2605 14.80021590170454
IRIDIUM 174             
1 56728U 23068U   26195.88365223  .00000400  00000+0  59569-4 0  9998
2 56728  86.6119 342.1111 0001991  87.3877 272.7568 14.72258022170091
IRIDIUM 178             
1 56729U 23068V   26195.89557685  .00000182  00000+0  20605-4 0  9991
2 56729  86.6535  13.7786 0002314  90.8281 269.3206 14.80026130170465
IRIDIUM 179             
1 56730U 23068W   26195.89022238  .00000158  00000+0  17435-4 0  9994
2 56730  86.6767  22.8424 0002323  93.4447 266.7041 14.80033514170469
