OBJECT_NAME,OBJECT_ID,EPOCH,MEAN_MOTION,ECCENTRICITY,INCLINATION,RA_OF_ASC_NODE,ARG_OF_PERICENTER,MEAN_ANOMALY,EPHEMERIS_TYPE,CLASSIFICATION_TYPE,NORAD_CAT_ID,ELEMENT_SET_NO,REV_AT_EPOCH,BSTAR,MEAN_MOTION_DOT,MEAN_MOTION_DDOT
IRIDIUM 154,2018-061F,2026-07-14T15:36:54.443232,14.34217501,.00023093,86.3939,45.3194,90.5055,269.6406,0,U,43574,999,41734,.18880396E-4,.73E-6,0
IRIDIUM 163,2018-061G,2026-07-14T15:09:30.474144,14.34217328,.0002129,86.3936,45.2416,85.7174,274.4265,0,U,43575,999,41731,.10162825E-4,.48E-6,0
IRIDIUM 156,2018-061H,2026-07-14T16:13:26.485536,14.34217556,.0002091,86.3936,45.2303,92.5574,267.5861,0,U,43576,999,41731,.10887184E-4,.5E-6,0
IRIDIUM 164,2018-061J,2026-07-14T15:46:02.611488,14.34218154,.00023259,86.3938,45.2792,89.3937,270.7525,0,U,43577,999,41735,.44467017E-4,.144E-5,0
IRIDIUM 159,2018-061K,2026-07-14T15:00:22.457952,14.34217422,.000214,86.3935,45.2288,85.2348,274.9092,0,U,43578,999,41731,.11407E-4,.52E-6,0
IRIDIUM 180,2019-002A,2026-07-14T21:41:30.962976,14.34218390,.00021846,86.3991,342.0108,90.7939,269.3507,0,U,43922,999,39296,.31961034E-4,.109E-5,0
IRIDIUM 176,2019-002B,2026-07-14T21:21:29.398176,14.72248840,.00023335,86.6111,341.9561,89.9278,270.2207,0,U,43923,999,40332,.57472912E-4,.387E-5,0
IRIDIUM 168,2019-002C,2026-07-14T21:32:22.910496,14.34216547,.00021038,86.3989,342.0916,91.5494,268.5943,0,U,43924,999,39294,-.25669645E-4,-.52E-6,0
IRIDIUM 173,2019-002D,2026-07-14T21:14:07.016352,14.34216472,.00020254,86.3987,341.9850,91.6799,268.4629,0,U,43925,999,39292,-.34183727E-4,-.76E-6,0
IRIDIUM 169,2019-002E,2026-07-14T22:26:58.438176,14.38613185,.00018768,86.4221,13.5885,103.1639,256.9768,0,U,43926,999,39421,.4917964E-5,.35E-6,0
IRIDIUM 172,2019-002F,2026-07-14T22:45:27.021024,14.34217451,.00021792,86.3988,341.9658,90.2194,269.9251,0,U,43927,999,39294,-.1810349E-5,.15E-6,0
IRIDIUM 175,2019-002G,2026-07-14T17:23:08.092608,14.43627085,.00052881,86.4512,279.0109,116.2044,243.9701,0,U,43928,999,40295,.46156384E-4,.177E-5,0
IRIDIUM 171,2019-002H,2026-07-14T20:37:34.973184,14.34217604,.00022197,86.3998,342.3121,94.9130,265.2319,0,U,43929,999,39292,.548908E-5,.35E-6,0
IRIDIUM 170,2019-002J,2026-07-14T21:30:22.488768,14.72249436,.00022636,86.6110,341.9558,86.4132,273.7344,0,U,43930,999,40333,.57898519E-4,.39E-5,0
IRIDIUM 167,2019-002K,2026-07-14T22:08:54.949344,14.34217754,.00022861,86.3991,341.9991,98.7123,261.4332,0,U,43931,999,39293,.7032288E-5,.39E-6,0
IRIDIUM 181,2023-068S,2026-07-14T16:47:20.985216,14.43312097,.00024066,86.4475,45.2853,83.7894,276.3581,0,U,56726,999,16640,.4573367E-4,.174E-5,0
IRIDIUM 177,2023-068T,2026-07-14T20:08:06.998496,14.80021590,.00023467,86.1988,315.6632,95.8884,264.2605,0,U,56727,999,17045,.67857464E-4,.54E-5,0
IRIDIUM 174,2023-068U,2026-07-14T21:12:27.552672,14.72258022,.0001991,86.6119,342.1111,87.3877,272.7568,0,U,56728,999,17009,.59568717E-4,.4E-5,0
IRIDIUM 178,2023-068V,2026-07-14T21:29:37.839840,14.80026130,.00023145,86.6535,13.7786,90.8281,269.3206,0,U,56729,999,17046,.20605127E-4,.182E-5,0
IRIDIUM 179,2023-068W,2026-07-14T21:21:55.213632,14.80033514,.00023237,86.6767,22.8424,93.4447,266.7041,0,U,56730,999,17046,.17435232E-4,.158E-5,0
